*******************************************************************************
JPL/HORIZONS               945 Barcelona (A921 CB)         2023-Sep-04 11:09:18
Rec #:     945 (+COV) Soln.date: 2023-Aug-25_02:05:11   # obs: 3080 (1921-2023)
 
IAU76/J2000 helio. ecliptic osc. elements (au, days, deg., period=Julian yrs):
 
  EPOCH=  2457572.5 ! 2016-Jul-03.00 (TDB)         Residual RMS= .23949
   EC= .1635795732003504   QR= 2.203692988285978   TP= 2457100.1082054339
   OM= 318.2979107709515   W=  162.0674371336067   IN= 32.89641676779735
   A= 2.634671413654793    MA= 108.8721326469036   ADIST= 3.065649839023608
   PER= 4.27659            N= .230469991           ANGMOM= .027545777
   DAN= 3.0368             DDN= 2.21885            L= 123.0961024
   B= 9.6265617            MOID= 1.22627997        TP= 2015-Mar-18.6082054339
 
Asteroid physical parameters (km, seconds, rotational period in hours):
   GM= n.a.                RAD= 12.809             ROTPER= 7.36
   H= 10.03                G= .150                 B-V= .809
                           ALBEDO= .239            STYP= Sq

ASTEROID comments: 
1: soln ref.= JPL#58, OCC=0
2: source=ORB
*******************************************************************************


*******************************************************************************
Ephemeris / API_USER Mon Sep  4 11:09:18 2023 Pasadena, USA      / Horizons
*******************************************************************************
Target body name: 945 Barcelona (A921 CB)         {source: JPL#58}
Center body name: Solar System Barycenter (0)     {source: DE441}
Center-site name: BODY CENTER
*******************************************************************************
Start time      : A.D. 2023-Aug-12 00:00:00.0000 TDB
Stop  time      : A.D. 2023-Aug-13 00:00:00.0000 TDB
Step-size       : 2880 minutes
*******************************************************************************
Center geodetic : 0.0, 0.0, 0.0                   {E-lon(deg),Lat(deg),Alt(km)}
Center cylindric: 0.0, 0.0, 0.0                   {E-lon(deg),Dxy(km),Dz(km)}
Center radii    : (undefined)
Small perturbers: Yes                             {source: SB441-N16}
Output units    : KM-S
Calendar mode   : Mixed Julian/Gregorian
Output type     : GEOMETRIC cartesian states
Output format   : 2 (position and velocity)
Reference frame : Ecliptic of J2000.0
*******************************************************************************
Initial IAU76/J2000 heliocentric ecliptic osculating elements (au, days, deg.):
  EPOCH=  2457572.5 ! 2016-Jul-03.00 (TDB)         Residual RMS= .23949        
   EC= .1635795732003504   QR= 2.203692988285978   TP= 2457100.1082054339      
   OM= 318.2979107709515   W=  162.0674371336067   IN= 32.89641676779735       
  Equivalent ICRF heliocentric cartesian coordinates (au, au/d):
   X=-8.793606360090211E-01  Y=-1.486066096144434E+00  Z=-2.244321235122315E+00
  VX= 8.107145738468272E-03 VY=-5.378327825009511E-03 VZ=-1.425216327484981E-03
Asteroid physical parameters (km, seconds, rotational period in hours):        
   GM= n.a.                RAD= 12.809             ROTPER= 7.36                
   H= 10.03                G= .150                 B-V= .809                   
                           ALBEDO= .239            STYP= Sq                    
*******************************************************************************
JDTDB
   X     Y     Z
   VX    VY    VZ
*******************************************************************************
$$SOE
2460168.500000000 = A.D. 2023-Aug-12 00:00:00.0000 TDB 
 X =-8.894372690345761E+07 Y = 3.030462352384130E+08 Z = 1.083660651214752E+08
 VX=-1.887895904858207E+01 VY=-3.122056112224924E+00 VZ=-9.616838327177298E+00
$$EOE
*******************************************************************************
 
TIME

  Barycentric Dynamical Time ("TDB" or T_eph) output was requested. This
continuous coordinate time is equivalent to the relativistic proper time
of a clock at rest in a reference frame co-moving with the solar system
barycenter but outside the system's gravity well. It is the independent
variable in the solar system relativistic equations of motion.

  TDB runs at a uniform rate of one SI second per second and is independent
of irregularities in Earth's rotation.
 
CALENDAR SYSTEM

  Mixed calendar mode was active such that calendar dates after AD 1582-Oct-15
(if any) are in the modern Gregorian system. Dates prior to 1582-Oct-5 (if any)
are in the Julian calendar system, which is automatically extended for dates
prior to its adoption on 45-Jan-1 BC.  The Julian calendar is useful for
matching historical dates. The Gregorian calendar more accurately corresponds
to the Earth's orbital motion and seasons. A "Gregorian-only" calendar mode is
available if such physical events are the primary interest.

REFERENCE FRAME AND COORDINATES

  Ecliptic at the standard reference epoch

    Reference epoch: J2000.0
    X-Y plane: adopted Earth orbital plane at the reference epoch
               Note: IAU76 obliquity of 84381.448 arcseconds wrt ICRF X-Y plane
    X-axis   : ICRF
    Z-axis   : perpendicular to the X-Y plane in the directional (+ or -) sense
               of Earth's north pole at the reference epoch.

  Symbol meaning:

    JDTDB    Julian Day Number, Barycentric Dynamical Time
      X      X-component of position vector (km)
      Y      Y-component of position vector (km)
      Z      Z-component of position vector (km)
      VX     X-component of velocity vector (km/sec)                           
      VY     Y-component of velocity vector (km/sec)                           
      VZ     Z-component of velocity vector (km/sec)                           

ABERRATIONS AND CORRECTIONS

 Geometric state vectors have NO corrections or aberrations applied.

Computations by ...

    Solar System Dynamics Group, Horizons On-Line Ephemeris System
    4800 Oak Grove Drive, Jet Propulsion Laboratory
    Pasadena, CA  91109   USA

    General site: https://ssd.jpl.nasa.gov/
    Mailing list: https://ssd.jpl.nasa.gov/email_list.html
    System news : https://ssd.jpl.nasa.gov/horizons/news.html
    User Guide  : https://ssd.jpl.nasa.gov/horizons/manual.html
    Connect     : browser        https://ssd.jpl.nasa.gov/horizons/app.html#/x
                  API            https://ssd-api.jpl.nasa.gov/doc/horizons.html
                  command-line   telnet ssd.jpl.nasa.gov 6775
                  e-mail/batch   https://ssd.jpl.nasa.gov/ftp/ssd/hrzn_batch.txt
                  scripts        https://ssd.jpl.nasa.gov/ftp/ssd/SCRIPTS
    Author      : Jon.D.Giorgini@jpl.nasa.gov
*******************************************************************************
